<?xml version="1.0" encoding="UTF-8"?>
<gpx creator="https://gpx.studio" version="1.1" xmlns="http://www.topografix.com/GPX/1/1" xmlns:xsi="http://www.w3.org/2001/XMLSchema-instance" xsi:schemaLocation="http://www.topografix.com/GPX/1/1 http://www.topografix.com/GPX/1/1/gpx.xsd http://www.garmin.com/xmlschemas/GpxExtensions/v3 http://www.garmin.com/xmlschemas/GpxExtensionsv3.xsd http://www.garmin.com/xmlschemas/TrackPointExtension/v1 http://www.garmin.com/xmlschemas/TrackPointExtensionv1.xsd http://www.garmin.com/xmlschemas/PowerExtension/v1 http://www.garmin.com/xmlschemas/PowerExtensionv1.xsd http://www.topografix.com/GPX/gpx_style/0/2 http://www.topografix.com/GPX/gpx_style/0/2/gpx_style.xsd" xmlns:gpxtpx="http://www.garmin.com/xmlschemas/TrackPointExtension/v1" xmlns:gpxx="http://www.garmin.com/xmlschemas/GpxExtensions/v3" xmlns:gpxpx="http://www.garmin.com/xmlschemas/PowerExtension/v1" xmlns:gpx_style="http://www.topografix.com/GPX/gpx_style/0/2">
  <metadata>
    <name>10km</name>
    <author>
      <name>gpx.studio</name>
      <link href="https://gpx.studio"/>
    </author>
  </metadata>
  <wpt lat="48.074972" lon="11.857319">
    <name>km 1</name>
    <desc>1000 m ab Start</desc>
  </wpt>
  <wpt lat="48.067830" lon="11.854712">
    <name>km 2</name>
    <desc>2000 m ab Start</desc>
  </wpt>
  <wpt lat="48.068541" lon="11.866371">
    <name>km 3</name>
    <desc>3000 m ab Start</desc>
  </wpt>
  <wpt lat="48.072350" lon="11.859809">
    <name>km 4</name>
    <desc>4000 m ab Start</desc>
  </wpt>
  <wpt lat="48.069713" lon="11.853290">
    <name>km 5</name>
    <desc>5000 m ab Start</desc>
  </wpt>
  <wpt lat="48.062042" lon="11.852944">
    <name>km 6</name>
    <desc>6000 m ab Start</desc>
  </wpt>
  <wpt lat="48.062934" lon="11.861825">
    <name>km 7</name>
    <desc>7000 m ab Start</desc>
  </wpt>
  <wpt lat="48.068150" lon="11.869241">
    <name>km 8</name>
    <desc>8000 m ab Start</desc>
  </wpt>
  <wpt lat="48.072552" lon="11.858992">
    <name>km 9</name>
    <desc>9000 m ab Start</desc>
  </wpt>
  <wpt lat="48.078598" lon="11.851529">
    <name>km 10</name>
    <desc>10000 m ab Start</desc>
  </wpt>
  <trk>
    <name>10km</name>
    <trkseg>
      <trkpt lat="48.079848" lon="11.855253">
        <ele>559</ele>
      </trkpt>
      <trkpt lat="48.079255" lon="11.855407">
        <ele>559</ele>
      </trkpt>
      <trkpt lat="48.079186" lon="11.855379">
        <ele>559</ele>
      </trkpt>
      <trkpt lat="48.079131" lon="11.855105">
        <ele>559</ele>
      </trkpt>
      <trkpt lat="48.079018" lon="11.853751">
        <ele>559</ele>
      </trkpt>
      <trkpt lat="48.07864" lon="11.851497">
        <ele>560</ele>
      </trkpt>
      <trkpt lat="48.078007" lon="11.851978">
        <ele>560.12</ele>
      </trkpt>
      <trkpt lat="48.077731" lon="11.852152">
        <ele>560.56</ele>
      </trkpt>
      <trkpt lat="48.077583" lon="11.852286">
        <ele>560.87</ele>
      </trkpt>
      <trkpt lat="48.077432" lon="11.852683">
        <ele>560.98</ele>
      </trkpt>
      <trkpt lat="48.077288" lon="11.852924">
        <ele>561</ele>
      </trkpt>
      <trkpt lat="48.076167" lon="11.854589">
        <ele>561</ele>
      </trkpt>
      <trkpt lat="48.075902" lon="11.854961">
        <ele>561</ele>
      </trkpt>
      <trkpt lat="48.075052" lon="11.855958">
        <ele>561.84</ele>
      </trkpt>
      <trkpt lat="48.07504" lon="11.856">
        <ele>561.86</ele>
      </trkpt>
      <trkpt lat="48.074922" lon="11.856425">
        <ele>561.97</ele>
      </trkpt>
      <trkpt lat="48.074947" lon="11.856769">
        <ele>561</ele>
      </trkpt>
      <trkpt lat="48.074972" lon="11.857112">
        <ele>562.32</ele>
      </trkpt>
      <trkpt lat="48.074971" lon="11.857545">
        <ele>564</ele>
      </trkpt>
      <trkpt lat="48.074953" lon="11.857544">
        <ele>564</ele>
      </trkpt>
      <trkpt lat="48.074346" lon="11.857522">
        <ele>564.99</ele>
      </trkpt>
      <trkpt lat="48.074304" lon="11.857037">
        <ele>563.12</ele>
      </trkpt>
      <trkpt lat="48.073883" lon="11.856694">
        <ele>563.01</ele>
      </trkpt>
      <trkpt lat="48.07338" lon="11.856011">
        <ele>563</ele>
      </trkpt>
      <trkpt lat="48.073053" lon="11.855396">
        <ele>563</ele>
      </trkpt>
      <trkpt lat="48.072723" lon="11.85523">
        <ele>563</ele>
      </trkpt>
      <trkpt lat="48.072124" lon="11.854732">
        <ele>564</ele>
      </trkpt>
      <trkpt lat="48.071727" lon="11.854491">
        <ele>564</ele>
      </trkpt>
      <trkpt lat="48.071424" lon="11.854204">
        <ele>564</ele>
      </trkpt>
      <trkpt lat="48.07127" lon="11.854046">
        <ele>564</ele>
      </trkpt>
      <trkpt lat="48.071238" lon="11.854013">
        <ele>564</ele>
      </trkpt>
      <trkpt lat="48.071017" lon="11.853909">
        <ele>564</ele>
      </trkpt>
      <trkpt lat="48.070747" lon="11.85365">
        <ele>565</ele>
      </trkpt>
      <trkpt lat="48.070363" lon="11.853204">
        <ele>565</ele>
      </trkpt>
      <trkpt lat="48.069659" lon="11.853297">
        <ele>565.45</ele>
      </trkpt>
      <trkpt lat="48.068806" lon="11.853409">
        <ele>569.86</ele>
      </trkpt>
      <trkpt lat="48.068106" lon="11.853511">
        <ele>570</ele>
      </trkpt>
      <trkpt lat="48.0681" lon="11.853554">
        <ele>570.01</ele>
      </trkpt>
      <trkpt lat="48.06801" lon="11.854187">
        <ele>570.12</ele>
      </trkpt>
      <trkpt lat="48.0675" lon="11.855678">
        <ele>571.24</ele>
      </trkpt>
      <trkpt lat="48.067207" lon="11.855629">
        <ele>572</ele>
      </trkpt>
      <trkpt lat="48.066975" lon="11.855535">
        <ele>572</ele>
      </trkpt>
      <trkpt lat="48.066948" lon="11.85563">
        <ele>572</ele>
      </trkpt>
      <trkpt lat="48.06692" lon="11.855736">
        <ele>572</ele>
      </trkpt>
      <trkpt lat="48.066599" lon="11.857257">
        <ele>574</ele>
      </trkpt>
      <trkpt lat="48.066582" lon="11.857554">
        <ele>574.18</ele>
      </trkpt>
      <trkpt lat="48.066598" lon="11.857786">
        <ele>574.82</ele>
      </trkpt>
      <trkpt lat="48.06684" lon="11.860617">
        <ele>576.05</ele>
      </trkpt>
      <trkpt lat="48.066907" lon="11.861249">
        <ele>577</ele>
      </trkpt>
      <trkpt lat="48.067024" lon="11.861548">
        <ele>577</ele>
      </trkpt>
      <trkpt lat="48.067535" lon="11.862691">
        <ele>575</ele>
      </trkpt>
      <trkpt lat="48.067747" lon="11.863276">
        <ele>575</ele>
      </trkpt>
      <trkpt lat="48.067926" lon="11.863874">
        <ele>575</ele>
      </trkpt>
      <trkpt lat="48.068027" lon="11.864277">
        <ele>576</ele>
      </trkpt>
      <trkpt lat="48.068068" lon="11.864576">
        <ele>577</ele>
      </trkpt>
      <trkpt lat="48.068086" lon="11.864857">
        <ele>577.81</ele>
      </trkpt>
      <trkpt lat="48.068109" lon="11.86508">
        <ele>578</ele>
      </trkpt>
      <trkpt lat="48.068177" lon="11.86538">
        <ele>577.95</ele>
      </trkpt>
      <trkpt lat="48.068279" lon="11.865699">
        <ele>577.93</ele>
      </trkpt>
      <trkpt lat="48.06865" lon="11.866651">
        <ele>579</ele>
      </trkpt>
      <trkpt lat="48.06874" lon="11.866986">
        <ele>579</ele>
      </trkpt>
      <trkpt lat="48.068789" lon="11.867247">
        <ele>579</ele>
      </trkpt>
      <trkpt lat="48.06884" lon="11.867671">
        <ele>578.91</ele>
      </trkpt>
      <trkpt lat="48.068956" lon="11.868138">
        <ele>578.99</ele>
      </trkpt>
      <trkpt lat="48.069197" lon="11.868698">
        <ele>578</ele>
      </trkpt>
      <trkpt lat="48.069356" lon="11.868734">
        <ele>578</ele>
      </trkpt>
      <trkpt lat="48.069508" lon="11.868727">
        <ele>577.36</ele>
      </trkpt>
      <trkpt lat="48.069583" lon="11.868701">
        <ele>577.2</ele>
      </trkpt>
      <trkpt lat="48.069583" lon="11.868701">
        <ele>577.2</ele>
      </trkpt>
      <trkpt lat="48.069714" lon="11.868655">
        <ele>576.92</ele>
      </trkpt>
      <trkpt lat="48.069865" lon="11.868516">
        <ele>575.97</ele>
      </trkpt>
      <trkpt lat="48.069993" lon="11.868363">
        <ele>575.84</ele>
      </trkpt>
      <trkpt lat="48.070299" lon="11.868027">
        <ele>576</ele>
      </trkpt>
      <trkpt lat="48.070704" lon="11.867767">
        <ele>576</ele>
      </trkpt>
      <trkpt lat="48.07072" lon="11.867657">
        <ele>576</ele>
      </trkpt>
      <trkpt lat="48.070761" lon="11.86754">
        <ele>576</ele>
      </trkpt>
      <trkpt lat="48.070955" lon="11.867092">
        <ele>575.9</ele>
      </trkpt>
      <trkpt lat="48.071032" lon="11.866844">
        <ele>575</ele>
      </trkpt>
      <trkpt lat="48.071105" lon="11.866536">
        <ele>575</ele>
      </trkpt>
      <trkpt lat="48.071154" lon="11.866222">
        <ele>575</ele>
      </trkpt>
      <trkpt lat="48.071203" lon="11.865623">
        <ele>574</ele>
      </trkpt>
      <trkpt lat="48.071276" lon="11.865041">
        <ele>572.7</ele>
      </trkpt>
      <trkpt lat="48.071303" lon="11.864583">
        <ele>572</ele>
      </trkpt>
      <trkpt lat="48.071331" lon="11.864388">
        <ele>572</ele>
      </trkpt>
      <trkpt lat="48.071457" lon="11.863795">
        <ele>572</ele>
      </trkpt>
      <trkpt lat="48.071599" lon="11.863022">
        <ele>571.12</ele>
      </trkpt>
      <trkpt lat="48.071963" lon="11.861375">
        <ele>570</ele>
      </trkpt>
      <trkpt lat="48.072678" lon="11.858484">
        <ele>567</ele>
      </trkpt>
      <trkpt lat="48.072884" lon="11.857372">
        <ele>566</ele>
      </trkpt>
      <trkpt lat="48.072852" lon="11.857369">
        <ele>566.05</ele>
      </trkpt>
      <trkpt lat="48.072852" lon="11.857369">
        <ele>566.05</ele>
      </trkpt>
      <trkpt lat="48.073813" lon="11.857503">
        <ele>565</ele>
      </trkpt>
      <trkpt lat="48.07431" lon="11.857521">
        <ele>564.99</ele>
      </trkpt>
      <trkpt lat="48.07431" lon="11.857521">
        <ele>564.99</ele>
      </trkpt>
      <trkpt lat="48.074346" lon="11.857522">
        <ele>564.99</ele>
      </trkpt>
      <trkpt lat="48.074304" lon="11.857037">
        <ele>563.12</ele>
      </trkpt>
      <trkpt lat="48.073883" lon="11.856694">
        <ele>563.01</ele>
      </trkpt>
      <trkpt lat="48.07338" lon="11.856011">
        <ele>563</ele>
      </trkpt>
      <trkpt lat="48.073053" lon="11.855396">
        <ele>563</ele>
      </trkpt>
      <trkpt lat="48.072723" lon="11.85523">
        <ele>563</ele>
      </trkpt>
      <trkpt lat="48.072124" lon="11.854732">
        <ele>564</ele>
      </trkpt>
      <trkpt lat="48.071727" lon="11.854491">
        <ele>564</ele>
      </trkpt>
      <trkpt lat="48.071424" lon="11.854204">
        <ele>564</ele>
      </trkpt>
      <trkpt lat="48.07127" lon="11.854046">
        <ele>564</ele>
      </trkpt>
      <trkpt lat="48.071238" lon="11.854013">
        <ele>564</ele>
      </trkpt>
      <trkpt lat="48.071017" lon="11.853909">
        <ele>564</ele>
      </trkpt>
      <trkpt lat="48.070747" lon="11.85365">
        <ele>565</ele>
      </trkpt>
      <trkpt lat="48.070363" lon="11.853204">
        <ele>565</ele>
      </trkpt>
      <trkpt lat="48.069543" lon="11.853312">
        <ele>566.05</ele>
      </trkpt>
      <trkpt lat="48.069543" lon="11.853312">
        <ele>566.05</ele>
      </trkpt>
      <trkpt lat="48.068806" lon="11.853409">
        <ele>569.86</ele>
      </trkpt>
      <trkpt lat="48.068106" lon="11.853511">
        <ele>570</ele>
      </trkpt>
      <trkpt lat="48.06801" lon="11.854187">
        <ele>570.12</ele>
      </trkpt>
      <trkpt lat="48.0675" lon="11.855678">
        <ele>571.24</ele>
      </trkpt>
      <trkpt lat="48.067207" lon="11.855629">
        <ele>572</ele>
      </trkpt>
      <trkpt lat="48.066975" lon="11.855535">
        <ele>572</ele>
      </trkpt>
      <trkpt lat="48.063" lon="11.85342">
        <ele>576.23</ele>
      </trkpt>
      <trkpt lat="48.062366" lon="11.853075">
        <ele>576.45</ele>
      </trkpt>
      <trkpt lat="48.062091" lon="11.852879">
        <ele>576.67</ele>
      </trkpt>
      <trkpt lat="48.062039" lon="11.852949">
        <ele>577</ele>
      </trkpt>
      <trkpt lat="48.061898" lon="11.853002">
        <ele>577</ele>
      </trkpt>
      <trkpt lat="48.061627" lon="11.853035">
        <ele>577</ele>
      </trkpt>
      <trkpt lat="48.061257" lon="11.85302">
        <ele>577</ele>
      </trkpt>
      <trkpt lat="48.061092" lon="11.853026">
        <ele>578</ele>
      </trkpt>
      <trkpt lat="48.060898" lon="11.853078">
        <ele>578</ele>
      </trkpt>
      <trkpt lat="48.060523" lon="11.853211">
        <ele>578.93</ele>
      </trkpt>
      <trkpt lat="48.060264" lon="11.85328">
        <ele>579</ele>
      </trkpt>
      <trkpt lat="48.060267" lon="11.853313">
        <ele>579</ele>
      </trkpt>
      <trkpt lat="48.060277" lon="11.853425">
        <ele>579</ele>
      </trkpt>
      <trkpt lat="48.060415" lon="11.85389">
        <ele>579</ele>
      </trkpt>
      <trkpt lat="48.060587" lon="11.854371">
        <ele>580</ele>
      </trkpt>
      <trkpt lat="48.060928" lon="11.855406">
        <ele>580.96</ele>
      </trkpt>
      <trkpt lat="48.060982" lon="11.855688">
        <ele>581</ele>
      </trkpt>
      <trkpt lat="48.061177" lon="11.858003">
        <ele>581.56</ele>
      </trkpt>
      <trkpt lat="48.061321" lon="11.859133">
        <ele>581.31</ele>
      </trkpt>
      <trkpt lat="48.061335" lon="11.859715">
        <ele>581.19</ele>
      </trkpt>
      <trkpt lat="48.061415" lon="11.860407">
        <ele>581.97</ele>
      </trkpt>
      <trkpt lat="48.061559" lon="11.861075">
        <ele>583</ele>
      </trkpt>
      <trkpt lat="48.06174" lon="11.861817">
        <ele>583.7</ele>
      </trkpt>
      <trkpt lat="48.061964" lon="11.861802">
        <ele>583.73</ele>
      </trkpt>
      <trkpt lat="48.062421" lon="11.861894">
        <ele>583</ele>
      </trkpt>
      <trkpt lat="48.062566" lon="11.862004">
        <ele>583.22</ele>
      </trkpt>
      <trkpt lat="48.062664" lon="11.861984">
        <ele>583.06</ele>
      </trkpt>
      <trkpt lat="48.06295" lon="11.861816">
        <ele>583</ele>
      </trkpt>
      <trkpt lat="48.06303" lon="11.861807">
        <ele>583</ele>
      </trkpt>
      <trkpt lat="48.063106" lon="11.86186">
        <ele>583</ele>
      </trkpt>
      <trkpt lat="48.063771" lon="11.864037">
        <ele>584</ele>
      </trkpt>
      <trkpt lat="48.063922" lon="11.864666">
        <ele>584</ele>
      </trkpt>
      <trkpt lat="48.064018" lon="11.864897">
        <ele>584</ele>
      </trkpt>
      <trkpt lat="48.064132" lon="11.865338">
        <ele>584.51</ele>
      </trkpt>
      <trkpt lat="48.064254" lon="11.865763">
        <ele>581.73</ele>
      </trkpt>
      <trkpt lat="48.064413" lon="11.866493">
        <ele>580</ele>
      </trkpt>
      <trkpt lat="48.064803" lon="11.86721">
        <ele>580.48</ele>
      </trkpt>
      <trkpt lat="48.064809" lon="11.867753">
        <ele>583.02</ele>
      </trkpt>
      <trkpt lat="48.064911" lon="11.86799">
        <ele>583.93</ele>
      </trkpt>
      <trkpt lat="48.064992" lon="11.868231">
        <ele>584.27</ele>
      </trkpt>
      <trkpt lat="48.065075" lon="11.868696">
        <ele>585</ele>
      </trkpt>
      <trkpt lat="48.065271" lon="11.8694">
        <ele>585.95</ele>
      </trkpt>
      <trkpt lat="48.065369" lon="11.869536">
        <ele>585.99</ele>
      </trkpt>
      <trkpt lat="48.065517" lon="11.869636">
        <ele>584.8</ele>
      </trkpt>
      <trkpt lat="48.06577" lon="11.869774">
        <ele>585</ele>
      </trkpt>
      <trkpt lat="48.065921" lon="11.870094">
        <ele>585</ele>
      </trkpt>
      <trkpt lat="48.066073" lon="11.87025">
        <ele>585</ele>
      </trkpt>
      <trkpt lat="48.066198" lon="11.870352">
        <ele>584.97</ele>
      </trkpt>
      <trkpt lat="48.066361" lon="11.870367">
        <ele>584.39</ele>
      </trkpt>
      <trkpt lat="48.066742" lon="11.870111">
        <ele>583.05</ele>
      </trkpt>
      <trkpt lat="48.06684" lon="11.870067">
        <ele>582.67</ele>
      </trkpt>
      <trkpt lat="48.06684" lon="11.870067">
        <ele>582.67</ele>
      </trkpt>
      <trkpt lat="48.066968" lon="11.87001">
        <ele>582.18</ele>
      </trkpt>
      <trkpt lat="48.067213" lon="11.869922">
        <ele>581</ele>
      </trkpt>
      <trkpt lat="48.068033" lon="11.869348">
        <ele>579.08</ele>
      </trkpt>
      <trkpt lat="48.0685" lon="11.868922">
        <ele>578.56</ele>
      </trkpt>
      <trkpt lat="48.068941" lon="11.868792">
        <ele>578</ele>
      </trkpt>
      <trkpt lat="48.069197" lon="11.868698">
        <ele>578</ele>
      </trkpt>
      <trkpt lat="48.069356" lon="11.868734">
        <ele>578</ele>
      </trkpt>
      <trkpt lat="48.069508" lon="11.868727">
        <ele>577.36</ele>
      </trkpt>
      <trkpt lat="48.069714" lon="11.868655">
        <ele>576.92</ele>
      </trkpt>
      <trkpt lat="48.069865" lon="11.868516">
        <ele>575.97</ele>
      </trkpt>
      <trkpt lat="48.069993" lon="11.868363">
        <ele>575.84</ele>
      </trkpt>
      <trkpt lat="48.070299" lon="11.868027">
        <ele>576</ele>
      </trkpt>
      <trkpt lat="48.070704" lon="11.867767">
        <ele>576</ele>
      </trkpt>
      <trkpt lat="48.07072" lon="11.867657">
        <ele>576</ele>
      </trkpt>
      <trkpt lat="48.070761" lon="11.86754">
        <ele>576</ele>
      </trkpt>
      <trkpt lat="48.070955" lon="11.867092">
        <ele>575.9</ele>
      </trkpt>
      <trkpt lat="48.071032" lon="11.866844">
        <ele>575</ele>
      </trkpt>
      <trkpt lat="48.071105" lon="11.866536">
        <ele>575</ele>
      </trkpt>
      <trkpt lat="48.071154" lon="11.866222">
        <ele>575</ele>
      </trkpt>
      <trkpt lat="48.071203" lon="11.865623">
        <ele>574</ele>
      </trkpt>
      <trkpt lat="48.071276" lon="11.865041">
        <ele>572.7</ele>
      </trkpt>
      <trkpt lat="48.071303" lon="11.864583">
        <ele>572</ele>
      </trkpt>
      <trkpt lat="48.071331" lon="11.864388">
        <ele>572</ele>
      </trkpt>
      <trkpt lat="48.071457" lon="11.863795">
        <ele>572</ele>
      </trkpt>
      <trkpt lat="48.071599" lon="11.863022">
        <ele>571.12</ele>
      </trkpt>
      <trkpt lat="48.071963" lon="11.861375">
        <ele>570</ele>
      </trkpt>
      <trkpt lat="48.072678" lon="11.858484">
        <ele>567</ele>
      </trkpt>
      <trkpt lat="48.072884" lon="11.857372">
        <ele>566</ele>
      </trkpt>
      <trkpt lat="48.073813" lon="11.857503">
        <ele>565</ele>
      </trkpt>
      <trkpt lat="48.073968" lon="11.857508">
        <ele>565</ele>
      </trkpt>
      <trkpt lat="48.074971" lon="11.857545">
        <ele>564</ele>
      </trkpt>
      <trkpt lat="48.074972" lon="11.857112">
        <ele>562.32</ele>
      </trkpt>
      <trkpt lat="48.074947" lon="11.856769">
        <ele>561</ele>
      </trkpt>
      <trkpt lat="48.074922" lon="11.856425">
        <ele>561.97</ele>
      </trkpt>
      <trkpt lat="48.075052" lon="11.855958">
        <ele>561.84</ele>
      </trkpt>
      <trkpt lat="48.075902" lon="11.854961">
        <ele>561</ele>
      </trkpt>
      <trkpt lat="48.076167" lon="11.854589">
        <ele>561</ele>
      </trkpt>
      <trkpt lat="48.077288" lon="11.852924">
        <ele>561</ele>
      </trkpt>
      <trkpt lat="48.077432" lon="11.852683">
        <ele>560.98</ele>
      </trkpt>
      <trkpt lat="48.077583" lon="11.852286">
        <ele>560.87</ele>
      </trkpt>
      <trkpt lat="48.077731" lon="11.852152">
        <ele>560.56</ele>
      </trkpt>
      <trkpt lat="48.078007" lon="11.851978">
        <ele>560.12</ele>
      </trkpt>
      <trkpt lat="48.07864" lon="11.851497">
        <ele>560</ele>
      </trkpt>
      <trkpt lat="48.079018" lon="11.853751">
        <ele>559</ele>
      </trkpt>
      <trkpt lat="48.079131" lon="11.855105">
        <ele>559</ele>
      </trkpt>
      <trkpt lat="48.079186" lon="11.855379">
        <ele>559</ele>
      </trkpt>
      <trkpt lat="48.079255" lon="11.855407">
        <ele>559</ele>
      </trkpt>
      <trkpt lat="48.079848" lon="11.855253">
        <ele>559</ele>
      </trkpt>
    </trkseg>
  </trk>
</gpx>
