<?xml version="1.0" encoding="UTF-8"?>
<gpx creator="atsv-marktlauf" version="1.1" xmlns="http://www.topografix.com/GPX/1/1">
  <metadata>
    <name>Marktlauf Kirchseeon 2026 – 500 m</name>
  </metadata>
  <trk>
    <name>Marktlauf Kirchseeon 2026 – 500 m</name>
    <trkseg>
      <trkpt lat="48.079754" lon="11.855276"><ele>559</ele></trkpt>
      <trkpt lat="48.079255" lon="11.855407"><ele>559</ele></trkpt>
      <trkpt lat="48.079186" lon="11.855379"><ele>559</ele></trkpt>
      <trkpt lat="48.079131" lon="11.855105"><ele>559</ele></trkpt>
      <trkpt lat="48.079018" lon="11.853751"><ele>559</ele></trkpt>
      <trkpt lat="48.078873" lon="11.852888"><ele>559.38</ele></trkpt>
      <trkpt lat="48.079018" lon="11.853751"><ele>559</ele></trkpt>
      <trkpt lat="48.079131" lon="11.855105"><ele>559</ele></trkpt>
      <trkpt lat="48.079186" lon="11.855379"><ele>559</ele></trkpt>
      <trkpt lat="48.079255" lon="11.855407"><ele>559</ele></trkpt>
      <trkpt lat="48.079754" lon="11.855276"><ele>559</ele></trkpt>
    </trkseg>
  </trk>
</gpx>
